{"fetched_at":"2026-03-30T06:02:59Z","count":15439,"tles":[{"name":"STARLINK-36461","line1":"1 67316U 26002M   26087.66183504  .00025854  00000+0  94484-3 0  9994","line2":"2 67316  42.9998 217.8461 0001057 281.1751  78.8982 15.27611282 14140","category":"Starlink"}]}