{
  "norad_id": 67316,
  "name": "STARLINK-36461",
  "history": [
    {
      "epoch": "2026-03-28T15:53:02.547456Z",
      "apogee_km": 483.68064554611374,
      "perigee_km": 482.2302106068182,
      "latitude_deg": 1.7224817547390442e-05,
      "longitude_deg": 153.50643375349068,
      "height_km": 482.5912598886136,
      "semi_major_axis_km": 6861.092428076466,
      "eccentricity": 0.0001057,
      "inclination_deg": 42.9998,
      "raan_deg": 217.8461,
      "arg_perigee_deg": 281.1751,
      "mean_anomaly_deg": 78.8982,
      "mean_motion_rev_day": 15.27611282
    }
  ]
}